[{"OBJECT_NAME":"TIANMU-1 10","OBJECT_ID":"2023-101D","EPOCH":"2026-03-05T13:53:25.142208","MEAN_MOTION":15.29134406,"ECCENTRICITY":0.00065983,"INCLINATION":97.2756,"RA_OF_ASC_NODE":117.8139,"ARG_OF_PERICENTER":146.0001,"MEAN_ANOMALY":214.1663,"EPHEMERIS_TYPE":0,"CLASSIFICATION_TYPE":"U","NORAD_CAT_ID":57402,"ELEMENT_SET_NO":999,"REV_AT_EPOCH":14580,"BSTAR":0.00033166499,"MEAN_MOTION_DOT":9.313e-5,"MEAN_MOTION_DDOT":0},{"OBJECT_NAME":"FENGYUN 3F","OBJECT_ID":"2023-111A","EPOCH":"2026-03-05T14:25:21.229824","MEAN_MOTION":14.19918384,"ECCENTRICITY":0.00013089,"INCLINATION":98.6936,"RA_OF_ASC_NODE":136.503,"ARG_OF_PERICENTER":81.8347,"MEAN_ANOMALY":278.2978,"EPHEMERIS_TYPE":0,"CLASSIFICATION_TYPE":"U","NORAD_CAT_ID":57490,"ELEMENT_SET_NO":999,"REV_AT_EPOCH":13416,"BSTAR":7.236364e-5,"MEAN_MOTION_DOT":1.1e-6,"MEAN_MOTION_DDOT":0},{"OBJECT_NAME":"ARKTIKA-M 2","OBJECT_ID":"2023-198A","EPOCH":"2026-03-03T01:58:58.035360","MEAN_MOTION":2.00614888,"ECCENTRICITY":0.68769635,"INCLINATION":63.2203,"RA_OF_ASC_NODE":166.1216,"ARG_OF_PERICENTER":267.7841,"MEAN_ANOMALY":18.8417,"EPHEMERIS_TYPE":0,"CLASSIFICATION_TYPE":"U","NORAD_CAT_ID":58584,"ELEMENT_SET_NO":999,"REV_AT_EPOCH":1619,"BSTAR":0,"MEAN_MOTION_DOT":1.37e-6,"MEAN_MOTION_DDOT":0},{"OBJECT_NAME":"TIANMU-1 11","OBJECT_ID":"2023-205A","EPOCH":"2026-03-05T14:36:59.157792","MEAN_MOTION":15.25813783,"ECCENTRICITY":0.00095103,"INCLINATION":97.3546,"RA_OF_ASC_NODE":87.8257,"ARG_OF_PERICENTER":22.2064,"MEAN_ANOMALY":337.9585,"EPHEMERIS_TYPE":0,"CLASSIFICATION_TYPE":"U","NORAD_CAT_ID":58645,"ELEMENT_SET_NO":999,"REV_AT_EPOCH":12172,"BSTAR":0.00033054279,"MEAN_MOTION_DOT":8.392e-5,"MEAN_MOTION_DDOT":0},{"OBJECT_NAME":"TIANMU-1 12","OBJECT_ID":"2023-205B","EPOCH":"2026-03-05T13:48:56.748384","MEAN_MOTION":15.25738102,"ECCENTRICITY":0.00072761,"INCLINATION":97.3533,"RA_OF_ASC_NODE":87.5729,"ARG_OF_PERICENTER":9.0714,"MEAN_ANOMALY":351.0654,"EPHEMERIS_TYPE":0,"CLASSIFICATION_TYPE":"U","NORAD_CAT_ID":58646,"ELEMENT_SET_NO":999,"REV_AT_EPOCH":12170,"BSTAR":0.00033009538,"MEAN_MOTION_DOT":8.357e-5,"MEAN_MOTION_DDOT":0},{"OBJECT_NAME":"TIANMU-1 13","OBJECT_ID":"2023-205C","EPOCH":"2026-03-05T14:33:37.874304","MEAN_MOTION":15.25787036,"ECCENTRICITY":0.00068962,"INCLINATION":97.3561,"RA_OF_ASC_NODE":87.8404,"ARG_OF_PERICENTER":349.4272,"MEAN_ANOMALY":10.682,"EPHEMERIS_TYPE":0,"CLASSIFICATION_TYPE":"U","NORAD_CAT_ID":58647,"ELEMENT_SET_NO":999,"REV_AT_EPOCH":12170,"BSTAR":0.00034450794,"MEAN_MOTION_DOT":8.738e-5,"MEAN_MOTION_DDOT":0},{"OBJECT_NAME":"TIANMU-1 14","OBJECT_ID":"2023-205D","EPOCH":"2026-03-05T14:11:19.319712","MEAN_MOTION":15.25764798,"ECCENTRICITY":0.00078242,"INCLINATION":97.3495,"RA_OF_ASC_NODE":87.0977,"ARG_OF_PERICENTER":352.6785,"MEAN_ANOMALY":7.4337,"EPHEMERIS_TYPE":0,"CLASSIFICATION_TYPE":"U","NORAD_CAT_ID":58648,"ELEMENT_SET_NO":999,"REV_AT_EPOCH":12170,"BSTAR":0.00034216585,"MEAN_MOTION_DOT":8.674e-5,"MEAN_MOTION_DDOT":0},{"OBJECT_NAME":"TIANMU-1 19","OBJECT_ID":"2023-208A","EPOCH":"2026-03-05T14:36:58.570272","MEAN_MOTION":15.29729551,"ECCENTRICITY":0.00042001,"INCLINATION":97.4388,"RA_OF_ASC_NODE":180.5922,"ARG_OF_PERICENTER":334.7829,"MEAN_ANOMALY":25.3206,"EPHEMERIS_TYPE":0,"CLASSIFICATION_TYPE":"U","NORAD_CAT_ID":58660,"ELEMENT_SET_NO":999,"REV_AT_EPOCH":12148,"BSTAR":0.00043475213,"MEAN_MOTION_DOT":0.00012455,"MEAN_MOTION_DDOT":0},{"OBJECT_NAME":"TIANMU-1 20","OBJECT_ID":"2023-208B","EPOCH":"2026-03-05T14:18:57.040128","MEAN_MOTION":15.30917925,"ECCENTRICITY":0.00064821,"INCLINATION":97.4329,"RA_OF_ASC_NODE":181.1092,"ARG_OF_PERICENTER":341.3019,"MEAN_ANOMALY":18.7983,"EPHEMERIS_TYPE":0,"CLASSIFICATION_TYPE":"U","NORAD_CAT_ID":58661,"ELEMENT_SET_NO":999,"REV_AT_EPOCH":12156,"BSTAR":0.00040603075,"MEAN_MOTION_DOT":0.00012066,"MEAN_MOTION_DDOT":0},{"OBJECT_NAME":"TIANMU-1 21","OBJECT_ID":"2023-208C","EPOCH":"2026-03-05T14:24:30.875040","MEAN_MOTION":15.32912315,"ECCENTRICITY":0.00062474,"INCLINATION":97.4382,"RA_OF_ASC_NODE":183.372,"ARG_OF_PERICENTER":334.5036,"MEAN_ANOMALY":25.5897,"EPHEMERIS_TYPE":0,"CLASSIFICATION_TYPE":"U","NORAD_CAT_ID":58662,"ELEMENT_SET_NO":999,"REV_AT_EPOCH":12168,"BSTAR":0.0004396425,"MEAN_MOTION_DOT":0.00013914,"MEAN_MOTION_DDOT":0},{"OBJECT_NAME":"TIANMU-1 22","OBJECT_ID":"2023-208D","EPOCH":"2026-03-05T15:00:55.086048","MEAN_MOTION":15.29354049,"ECCENTRICITY":0.00034688,"INCLINATION":97.4384,"RA_OF_ASC_NODE":180.6225,"ARG_OF_PERICENTER":8.5155,"MEAN_ANOMALY":351.6143,"EPHEMERIS_TYPE":0,"CLASSIFICATION_TYPE":"U","NORAD_CAT_ID":58663,"ELEMENT_SET_NO":999,"REV_AT_EPOCH":12149,"BSTAR":0.00039205438,"MEAN_MOTION_DOT":0.00011092,"MEAN_MOTION_DDOT":0},{"OBJECT_NAME":"TIANMU-1 15","OBJECT_ID":"2024-004A","EPOCH":"2026-03-05T15:42:31.936320","MEAN_MOTION":15.25762757,"ECCENTRICITY":0.0007016,"INCLINATION":97.4663,"RA_OF_ASC_NODE":250.8984,"ARG_OF_PERICENTER":4.355,"MEAN_ANOMALY":355.7748,"EPHEMERIS_TYPE":0,"CLASSIFICATION_TYPE":"U","NORAD_CAT_ID":58700,"ELEMENT_SET_NO":999,"REV_AT_EPOCH":11998,"BSTAR":0.00034915328,"MEAN_MOTION_DOT":8.849e-5,"MEAN_MOTION_DDOT":0},{"OBJECT_NAME":"TIANMU-1 16","OBJECT_ID":"2024-004B","EPOCH":"2026-03-05T13:44:26.541024","MEAN_MOTION":15.25795517,"ECCENTRICITY":0.00055311,"INCLINATION":97.4605,"RA_OF_ASC_NODE":250.1425,"ARG_OF_PERICENTER":10.7121,"MEAN_ANOMALY":349.4234,"EPHEMERIS_TYPE":0,"CLASSIFICATION_TYPE":"U","NORAD_CAT_ID":58701,"ELEMENT_SET_NO":999,"REV_AT_EPOCH":11997,"BSTAR":0.00035058848,"MEAN_MOTION_DOT":8.892e-5,"MEAN_MOTION_DDOT":0},{"OBJECT_NAME":"TIANMU-1 17","OBJECT_ID":"2024-004C","EPOCH":"2026-03-05T14:53:34.490976","MEAN_MOTION":15.25832853,"ECCENTRICITY":0.00047826,"INCLINATION":97.4637,"RA_OF_ASC_NODE":250.6422,"ARG_OF_PERICENTER":13.9487,"MEAN_ANOMALY":346.1882,"EPHEMERIS_TYPE":0,"CLASSIFICATION_TYPE":"U","NORAD_CAT_ID":58702,"ELEMENT_SET_NO":999,"REV_AT_EPOCH":11997,"BSTAR":0.00035291481,"MEAN_MOTION_DOT":8.961e-5,"MEAN_MOTION_DDOT":0},{"OBJECT_NAME":"TIANMU-1 18","OBJECT_ID":"2024-004D","EPOCH":"2026-03-05T14:32:01.081248","MEAN_MOTION":15.25781836,"ECCENTRICITY":0.00041986,"INCLINATION":97.4654,"RA_OF_ASC_NODE":250.8381,"ARG_OF_PERICENTER":15.3597,"MEAN_ANOMALY":344.7768,"EPHEMERIS_TYPE":0,"CLASSIFICATION_TYPE":"U","NORAD_CAT_ID":58703,"ELEMENT_SET_NO":999,"REV_AT_EPOCH":11997,"BSTAR":0.00035508473,"MEAN_MOTION_DOT":9.002e-5,"MEAN_MOTION_DDOT":0},{"OBJECT_NAME":"INSAT-3DS","OBJECT_ID":"2024-033A","EPOCH":"2026-03-05T14:23:16.925280","MEAN_MOTION":1.00270292,"ECCENTRICITY":0.00023306,"INCLINATION":0.0527,"RA_OF_ASC_NODE":262.3903,"ARG_OF_PERICENTER":98.1554,"MEAN_ANOMALY":100.6566,"EPHEMERIS_TYPE":0,"CLASSIFICATION_TYPE":"U","NORAD_CAT_ID":58990,"ELEMENT_SET_NO":999,"REV_AT_EPOCH":4602,"BSTAR":0,"MEAN_MOTION_DOT":-1.62e-6,"MEAN_MOTION_DDOT":0},{"OBJECT_NAME":"METEOR-M2 4","OBJECT_ID":"2024-039A","EPOCH":"2026-03-05T15:21:01.796832","MEAN_MOTION":14.22416324,"ECCENTRICITY":0.00081053,"INCLINATION":98.69,"RA_OF_ASC_NODE":25.3045,"ARG_OF_PERICENTER":106.4675,"MEAN_ANOMALY":253.7394,"EPHEMERIS_TYPE":0,"CLASSIFICATION_TYPE":"U","NORAD_CAT_ID":59051,"ELEMENT_SET_NO":999,"REV_AT_EPOCH":10454,"BSTAR":3.8764495e-5,"MEAN_MOTION_DOT":4.3e-7,"MEAN_MOTION_DDOT":0}]
