TIANMU-1 10             
1 57402U 23101D   26064.57876322  .00009313  00000+0  33166-3 0  9990
2 57402  97.2756 117.8139 0006598 146.0001 214.1663 15.29134406145802
FENGYUN 3F              
1 57490U 23111A   26064.60094016  .00000110  00000+0  72364-4 0  9994
2 57490  98.6936 136.5030 0001308  81.8347 278.2978 14.19918384134165
ARKTIKA-M 2             
1 58584U 23198A   26062.08261615  .00000137  00000+0  00000+0 0  9997
2 58584  63.2203 166.1216 6876963 267.7841  18.8417  2.00614888 16194
TIANMU-1 11             
1 58645U 23205A   26064.60901803  .00008392  00000+0  33054-3 0  9994
2 58645  97.3546  87.8257 0009510  22.2064 337.9585 15.25813783121728
TIANMU-1 12             
1 58646U 23205B   26064.57565681  .00008357  00000+0  33010-3 0  9994
2 58646  97.3533  87.5729 0007276   9.0714 351.0654 15.25738102121701
TIANMU-1 13             
1 58647U 23205C   26064.60668836  .00008738  00000+0  34451-3 0  9998
2 58647  97.3561  87.8404 0006896 349.4272  10.6820 15.25787036121706
TIANMU-1 14             
1 58648U 23205D   26064.59119583  .00008674  00000+0  34217-3 0  9996
2 58648  97.3495  87.0977 0007824 352.6785   7.4337 15.25764798121704
TIANMU-1 19             
1 58660U 23208A   26064.60901123  .00012455  00000+0  43475-3 0  9992
2 58660  97.4388 180.5922 0004200 334.7829  25.3206 15.29729551121485
TIANMU-1 20             
1 58661U 23208B   26064.59649352  .00012066  00000+0  40603-3 0  9992
2 58661  97.4329 181.1092 0006482 341.3019  18.7983 15.30917925121568
TIANMU-1 21             
1 58662U 23208C   26064.60035735  .00013914  00000+0  43964-3 0  9995
2 58662  97.4382 183.3720 0006247 334.5036  25.5897 15.32912315121685
TIANMU-1 22             
1 58663U 23208D   26064.62563757  .00011092  00000+0  39205-3 0  9996
2 58663  97.4384 180.6225 0003468   8.5155 351.6143 15.29354049121496
TIANMU-1 15             
1 58700U 24004A   26064.65453630  .00008849  00000+0  34915-3 0  9993
2 58700  97.4663 250.8984 0007016   4.3550 355.7748 15.25762757119988
TIANMU-1 16             
1 58701U 24004B   26064.57252941  .00008892  00000+0  35059-3 0  9995
2 58701  97.4605 250.1425 0005531  10.7121 349.4234 15.25795517119972
TIANMU-1 17             
1 58702U 24004C   26064.62053809  .00008961  00000+0  35291-3 0  9999
2 58702  97.4637 250.6422 0004782  13.9487 346.1882 15.25832853119975
TIANMU-1 18             
1 58703U 24004D   26064.60556807  .00009002  00000+0  35508-3 0  9992
2 58703  97.4654 250.8381 0004198  15.3597 344.7768 15.25781836119971
INSAT-3DS               
1 58990U 24033A   26064.59950145 -.00000162  00000+0  00000+0 0  9997
2 58990   0.0527 262.3903 0002330  98.1554 100.6566  1.00270292 46021
METEOR-M2 4             
1 59051U 24039A   26064.63960413  .00000043  00000+0  38764-4 0  9996
2 59051  98.6900  25.3045 0008105 106.4675 253.7394 14.22416324104542
